[
    {
        "Altitude(m)": 703940.1235030292,
        "Argument of Periapsis(deg)": 0.004556048474650827,
        "Eccentricity": 0.0,
        "Inclination(deg)": 45.0,
        "Latitude(deg)": -3.3432082083706005,
        "Longitude(deg)": -86.96032218226343,
        "Mean Anomaly(deg)": -175.38671334100766,
        "RAAN(deg)": 189.99569922341675,
        "Satellite Name": "Constellation 1 847",
        "Satellite Number": 847,
        "Semi-Major Axis(m)": 7083131.272910544,
        "Time(s)": 76
    },
    {
        "Altitude(m)": 703947.3109264126,
        "Argument of Periapsis(deg)": 0.004615996480896233,
        "Eccentricity": 0.0,
        "Inclination(deg)": 45.0,
        "Latitude(deg)": -3.3863427078191055,
        "Longitude(deg)": -86.92143202281544,
        "Mean Anomaly(deg)": -175.3260122007578,
        "RAAN(deg)": 189.99564263425114,
        "Satellite Name": "Constellation 1 847",
        "Satellite Number": 847,
        "Semi-Major Axis(m)": 7083131.272910544,
        "Time(s)": 77
    },
    {
        "Altitude(m)": 703954.518201091,
        "Argument of Periapsis(deg)": 0.004675944487141638,
        "Eccentricity": 0.0,
        "Inclination(deg)": 45.0,
        "Latitude(deg)": -3.4294751768737384,
        "Longitude(deg)": -86.88253813689421,
        "Mean Anomaly(deg)": -175.26531106050786,
        "RAAN(deg)": 189.9955860450856,
        "Satellite Name": "Constellation 1 847",
        "Satellite Number": 847,
        "Semi-Major Axis(m)": 7083131.272910544,
        "Time(s)": 78
    },
    {
        "Altitude(m)": 703961.7453133276,
        "Argument of Periapsis(deg)": 0.004735892493387044,
        "Eccentricity": 0.0,
        "Inclination(deg)": 45.0,
        "Latitude(deg)": -3.472605590340471,
        "Longitude(deg)": -86.84364047589662,
        "Mean Anomaly(deg)": -175.20460992025798,
        "RAAN(deg)": 189.99552945592,
        "Satellite Name": "Constellation 1 847",
        "Satellite Number": 847,
        "Semi-Major Axis(m)": 7083131.272910544,
        "Time(s)": 79
    },
    {
        "Altitude(m)": 703968.9922493143,
        "Argument of Periapsis(deg)": 0.004795840499632449,
        "Eccentricity": 0.0,
        "Inclination(deg)": 45.0,
        "Latitude(deg)": -3.515733923018628,
        "Longitude(deg)": -86.80473899121105,
        "Mean Anomaly(deg)": -175.14390878000805,
        "RAAN(deg)": 189.99547286675445,
        "Satellite Name": "Constellation 1 847",
        "Satellite Number": 847,
        "Semi-Major Axis(m)": 7083131.272910544,
        "Time(s)": 80
    },
    {
        "Altitude(m)": 703976.2589951298,
        "Argument of Periapsis(deg)": 0.004855788505877855,
        "Eccentricity": 0.0,
        "Inclination(deg)": 45.0,
        "Latitude(deg)": -3.558860149700257,
        "Longitude(deg)": -86.76583363421797,
        "Mean Anomaly(deg)": -175.08320763975817,
        "RAAN(deg)": 189.9954162775889,
        "Satellite Name": "Constellation 1 847",
        "Satellite Number": 847,
        "Semi-Major Axis(m)": 7083131.272910544,
        "Time(s)": 81
    },
    {
        "Altitude(m)": 703983.5455367744,
        "Argument of Periapsis(deg)": 0.00491573651212326,
        "Eccentricity": 0.0,
        "Inclination(deg)": 45.0,
        "Latitude(deg)": -3.601984245170614,
        "Longitude(deg)": -86.72692452438618,
        "Mean Anomaly(deg)": -175.0225064995083,
        "RAAN(deg)": 189.9953596884233,
        "Satellite Name": "Constellation 1 847",
        "Satellite Number": 847,
        "Semi-Major Axis(m)": 7083131.272910544,
        "Time(s)": 82
    },
    {
        "Altitude(m)": 703990.8518601558,
        "Argument of Periapsis(deg)": 0.004975684518368666,
        "Eccentricity": 0.0,
        "Inclination(deg)": 45.0,
        "Latitude(deg)": -3.645106184207544,
        "Longitude(deg)": -86.68801127688504,
        "Mean Anomaly(deg)": -174.96180535925834,
        "RAAN(deg)": 189.99530309925774,
        "Satellite Name": "Constellation 1 847",
        "Satellite Number": 847,
        "Semi-Major Axis(m)": 7083131.272910544,
        "Time(s)": 83
    },
    {
        "Altitude(m)": 703998.1779510805,
        "Argument of Periapsis(deg)": 0.005035632524614072,
        "Eccentricity": 0.0,
        "Inclination(deg)": 45.0,
        "Latitude(deg)": -3.688225941581627,
        "Longitude(deg)": -86.64909401116665,
        "Mean Anomaly(deg)": -174.90110421900846,
        "RAAN(deg)": 189.99524651009216,
        "Satellite Name": "Constellation 1 847",
        "Satellite Number": 847,
        "Semi-Major Axis(m)": 7083131.272910544,
        "Time(s)": 84
    },
    {
        "Altitude(m)": 704005.5237952799,
        "Argument of Periapsis(deg)": 0.0050955805308594785,
        "Eccentricity": 0.0,
        "Inclination(deg)": 45.0,
        "Latitude(deg)": -3.7313434920561592,
        "Longitude(deg)": -86.61017267857711,
        "Mean Anomaly(deg)": -174.84040307875858,
        "RAAN(deg)": 189.9951899209266,
        "Satellite Name": "Constellation 1 847",
        "Satellite Number": 847,
        "Semi-Major Axis(m)": 7083131.272910544,
        "Time(s)": 85
    },
    {
        "Altitude(m)": 704012.8893783767,
        "Argument of Periapsis(deg)": 0.005155528537104883,
        "Eccentricity": 0.0,
        "Inclination(deg)": 45.0,
        "Latitude(deg)": -3.7744588103868666,
        "Longitude(deg)": -86.57124723045398,
        "Mean Anomaly(deg)": -174.77970193850868,
        "RAAN(deg)": 189.99513333176105,
        "Satellite Name": "Constellation 1 847",
        "Satellite Number": 847,
        "Semi-Major Axis(m)": 7083131.272910544,
        "Time(s)": 86
    },
    {
        "Altitude(m)": 704020.2746859177,
        "Argument of Periapsis(deg)": 0.0052154765433502885,
        "Eccentricity": 0.0,
        "Inclination(deg)": 45.0,
        "Latitude(deg)": -3.817571871322061,
        "Longitude(deg)": -86.53231761812566,
        "Mean Anomaly(deg)": -174.7190007982588,
        "RAAN(deg)": 189.99507674259544,
        "Satellite Name": "Constellation 1 847",
        "Satellite Number": 847,
        "Semi-Major Axis(m)": 7083131.272910544,
        "Time(s)": 87
    },
    {
        "Altitude(m)": 704027.6797033448,
        "Argument of Periapsis(deg)": 0.005275424549595694,
        "Eccentricity": 0.0,
        "Inclination(deg)": 45.0,
        "Latitude(deg)": -3.8606826496022353,
        "Longitude(deg)": -86.49338379291187,
        "Mean Anomaly(deg)": -174.65829965800884,
        "RAAN(deg)": 189.9950201534299,
        "Satellite Name": "Constellation 1 847",
        "Satellite Number": 847,
        "Semi-Major Axis(m)": 7083131.272910544,
        "Time(s)": 88
    },
    {
        "Altitude(m)": 704035.104416028,
        "Argument of Periapsis(deg)": 0.0053353725558411,
        "Eccentricity": 0.0,
        "Inclination(deg)": 45.0,
        "Latitude(deg)": -3.90379111996019,
        "Longitude(deg)": -86.45444587422021,
        "Mean Anomaly(deg)": -174.597598517759,
        "RAAN(deg)": 189.99496356426434,
        "Satellite Name": "Constellation 1 847",
        "Satellite Number": 847,
        "Semi-Major Axis(m)": 7083131.272910544,
        "Time(s)": 89
    },
    {
        "Altitude(m)": 704042.5488092145,
        "Argument of Periapsis(deg)": 0.005395320562086505,
        "Eccentricity": 0.0,
        "Inclination(deg)": 45.0,
        "Latitude(deg)": -3.946897257121014,
        "Longitude(deg)": -86.4155034771577,
        "Mean Anomaly(deg)": -174.53689737750906,
        "RAAN(deg)": 189.99490697509876,
        "Satellite Name": "Constellation 1 847",
        "Satellite Number": 847,
        "Semi-Major Axis(m)": 7083131.272910544,
        "Time(s)": 90
    },
    {
        "Altitude(m)": 704050.0128680967,
        "Argument of Periapsis(deg)": 0.00545526856833191,
        "Eccentricity": 0.0,
        "Inclination(deg)": 45.0,
        "Latitude(deg)": -3.9900010358017055,
        "Longitude(deg)": -86.37655672111349,
        "Mean Anomaly(deg)": -174.47619623725916,
        "RAAN(deg)": 189.9948503859332,
        "Satellite Name": "Constellation 1 847",
        "Satellite Number": 847,
        "Semi-Major Axis(m)": 7083131.272910544,
        "Time(s)": 91
    },
    {
        "Altitude(m)": 704057.496577747,
        "Argument of Periapsis(deg)": 0.005515216574577317,
        "Eccentricity": 0.0,
        "Inclination(deg)": 45.0,
        "Latitude(deg)": -4.033102430711307,
        "Longitude(deg)": -86.33760555737011,
        "Mean Anomaly(deg)": -174.41549509700928,
        "RAAN(deg)": 189.9947937967676,
        "Satellite Name": "Constellation 1 847",
        "Satellite Number": 847,
        "Semi-Major Axis(m)": 7083131.272910544,
        "Time(s)": 92
    },
    {
        "Altitude(m)": 704064.9999231674,
        "Argument of Periapsis(deg)": 0.005575164580822722,
        "Eccentricity": 0.0,
        "Inclination(deg)": 45.0,
        "Latitude(deg)": -4.076201416550807,
        "Longitude(deg)": -86.2986499372007,
        "Mean Anomaly(deg)": -174.35479395675938,
        "RAAN(deg)": 189.99473720760204,
        "Satellite Name": "Constellation 1 847",
        "Satellite Number": 847,
        "Semi-Major Axis(m)": 7083131.272910544,
        "Time(s)": 93
    },
    {
        "Altitude(m)": 704072.5228892576,
        "Argument of Periapsis(deg)": 0.005635112587068129,
        "Eccentricity": 0.0,
        "Inclination(deg)": 45.0,
        "Latitude(deg)": -4.119297968012832,
        "Longitude(deg)": -86.2596898118687,
        "Mean Anomaly(deg)": -174.2940928165095,
        "RAAN(deg)": 189.9946806184365,
        "Satellite Name": "Constellation 1 847",
        "Satellite Number": 847,
        "Semi-Major Axis(m)": 7083131.272910544,
        "Time(s)": 94
    }
]